NORAD_CAT_ID,OBJECT_NAME,OBJECT_TYPE,EPOCH,MEAN_MOTION,ECCENTRICITY,INCLINATION,RA_OF_ASC_NODE,ARG_OF_PERICENTER,MEAN_ANOMALY,BSTAR,MEAN_MOTION_DOT,MEAN_MOTION_DDOT,TLE_LINE0,TLE_LINE1,TLE_LINE2,SEMIMAJOR_AXIS,PERIOD,APOGEE,PERIGEE,DECAYED
53918.0,STARLINK-5012,PAYLOAD,2023-07-26 15:16:12,15.08850912,0.0001348,53.2138,290.4109,54.522,305.5897,0.00051015,7.843e-05,0.0,0 STARLINK-5012,1 53918U 22119AJ  23207.63625895  .00007843  00000-0  51015-3 0  9996,2 53918  53.2138 290.4109 0001348  54.5220 305.5897 15.08850912 46926,6917.847,95.437,540.645,538.78,0.0
53918.0,STARLINK-5012,PAYLOAD,2023-07-26 23:13:08,15.08848844,0.0002103,53.214,288.9242,51.9579,308.1602,0.00027291,4.059e-05,0.0,0 STARLINK-5012,1 53918U 22119AJ  23207.96745535  .00004059  00000-0  27291-3 0  9991,2 53918  53.2140 288.9242 0002103  51.9579 308.1602 15.08848844 47393,6917.853,95.437,541.173,538.264,0.0
53918.0,STARLINK-5012,PAYLOAD,2023-07-27 16:42:22,15.08848435,0.000107,53.2173,285.6473,100.4182,259.6931,0.00016988,2.417e-05,0.0,0 STARLINK-5012,1 53918U 22119AJ  23208.69609354  .00002417  00000-0  16988-3 0  9997,2 53918  53.2173 285.6473 0001070 100.4182 259.6931 15.08848435 47088,6917.855,95.437,540.46,538.979,0.0
53918.0,STARLINK-5012,PAYLOAD,2023-07-28 05:25:28,15.08835184,0.0001302,53.2153,283.2674,95.5178,264.5962,-0.00018048,-3.159e-05,0.0,0 STARLINK-5012,1 53918U 22119AJ  23209.22601895 -.00003159  00000-0 -18048-3 0  9994,2 53918  53.2153 283.2674 0001302  95.5178 264.5962 15.08835184 47165,6917.895,95.438,540.661,538.859,0.0
53918.0,STARLINK-5012,PAYLOAD,2023-07-28 08:36:14,15.08832742,0.0001061,53.2158,282.6732,106.8092,253.3017,-0.00018736,-3.268e-05,0.0,0 STARLINK-5012,1 53918U 22119AJ  23209.35849957 -.00003268  00000-0 -18736-3 0  9996,2 53918  53.2158 282.6732 0001061 106.8092 253.3017 15.08832742 47604,6917.903,95.438,540.502,539.034,0.0
53918.0,STARLINK-5012,PAYLOAD,2023-07-29 10:02:24,15.08843344,0.0001196,53.2161,277.9166,90.1846,269.9283,0.00025988,3.851e-05,0.0,0 STARLINK-5012,1 53918U 22119AJ  23210.41834304  .00003851  00000-0  25988-3 0  9998,2 53918  53.2161 277.9166 0001196  90.1846 269.9283 15.08843344 47346,6917.87,95.437,540.563,538.908,0.0
53918.0,STARLINK-5012,PAYLOAD,2023-07-30 09:53:12,15.08844112,0.0001164,53.2159,273.4565,91.9897,268.1228,0.00031773,4.773e-05,0.0,0 STARLINK-5012,1 53918U 22119AJ  23211.41194559  .00004773  00000-0  31773-3 0  9993,2 53918  53.2159 273.4565 0001164  91.9897 268.1228 15.08844112 47497,6917.868,95.437,540.538,538.928,0.0
53918.0,STARLINK-5012,PAYLOAD,2023-07-31 11:19:22,15.08849069,0.0001107,53.2149,268.6989,86.0524,274.0594,0.00039535,6.011e-05,0.0,0 STARLINK-5012,1 53918U 22119AJ  23212.47178375  .00006011  00000-0  39535-3 0  9999,2 53918  53.2149 268.6989 0001107  86.0524 274.0594 15.08849069 47657,6917.853,95.437,540.483,538.952,0.0
53918.0,STARLINK-5012,PAYLOAD,2023-08-01 00:02:27,15.08840801,0.0001174,53.2146,266.3201,91.3022,268.8104,0.00010424,1.372e-05,0.0,0 STARLINK-5012,1 53918U 22119AJ  23213.00170506  .00001372  00000-0  10424-3 0  9998,2 53918  53.2146 266.3201 0001174  91.3022 268.8104 15.08840801 47734,6917.878,95.438,540.555,538.931,0.0
53918.0,STARLINK-5012,PAYLOAD,2023-08-02 09:25:33,15.08839466,0.0001251,53.2148,260.0749,88.6795,271.434,6.1174e-05,6.86e-06,0.0,0 STARLINK-5012,1 53918U 22119AJ  23214.39274825  .00000686  00000-0  61174-4 0  9996,2 53918  53.2148 260.0749 0001251  88.6795 271.4340 15.08839466 47946,6917.882,95.438,540.612,538.882,0.0
53918.0,STARLINK-5012,PAYLOAD,2023-08-03 14:02:29,15.08849636,0.0001244,53.2147,254.7218,87.8765,272.2369,0.00023465,3.45e-05,0.0,0 STARLINK-5012,1 53918U 22119AJ  23215.58506331  .00003450  00000-0  23465-3 0  9990,2 53918  53.2147 254.7218 0001244  87.8765 272.2369 15.08849636 48127,6917.851,95.437,540.577,538.855,0.0
53918.0,STARLINK-5012,PAYLOAD,2023-08-04 02:45:35,15.08836578,0.0001243,53.2153,252.3435,82.8292,277.2841,3.5788e-05,2.82e-06,0.0,0 STARLINK-5012,1 53918U 22119AJ  23216.11499103  .00000282  00000-0  35788-4 0  9990,2 53918  53.2153 252.3435 0001243  82.8292 277.2841 15.08836578 48208,6917.891,95.438,540.616,538.896,0.0
53918.0,STARLINK-5012,PAYLOAD,2023-08-05 07:22:31,15.08844551,0.0001225,53.2149,246.9894,94.95,265.1632,0.00011522,1.547e-05,0.0,0 STARLINK-5012,1 53918U 22119AJ  23217.30730774  .00001547  00000-0  11522-3 0  9998,2 53918  53.2149 246.9894 0001225  94.9500 265.1632 15.08844551 48380,6917.866,95.437,540.579,538.884,0.0
53918.0,STARLINK-5012,PAYLOAD,2023-08-06 02:27:09,15.08839782,0.0001374,53.2151,243.4191,105.1141,255.0003,0.00010139,1.326e-05,0.0,0 STARLINK-5012,1 53918U 22119AJ  23218.10218901  .00001326  00000-0  10139-3 0  9998,2 53918  53.2151 243.4191 0001374 105.1141 255.0003 15.08839782 48500,6917.881,95.438,540.697,538.796,0.0
53918.0,STARLINK-5012,PAYLOAD,2023-08-07 10:14:52,15.08835233,0.0001276,53.2161,237.4756,98.6472,261.4665,-3.4479e-05,-8.36e-06,0.0,0 STARLINK-5012,1 53918U 22119AJ  23219.42699880 -.00000836  00000-0 -34479-4 0  9994,2 53918  53.2161 237.4756 0001276  98.6472 261.4665 15.08835233 48709,6917.895,95.438,540.643,538.877,0.0
53918.0,STARLINK-5012,PAYLOAD,2023-08-08 10:05:39,15.08841292,0.0001163,53.2155,233.0135,89.7852,270.3273,7.7218e-05,9.41e-06,0.0,0 STARLINK-5012,1 53918U 22119AJ  23220.42059390  .00000941  00000-0  77218-4 0  9995,2 53918  53.2155 233.0135 0001163  89.7852 270.3273 15.08841292 48855,6917.876,95.437,540.546,538.937,0.0
53918.0,STARLINK-5012,PAYLOAD,2023-08-09 01:59:31,15.08835446,0.0001165,53.2156,230.0391,87.1278,272.9847,0.00011739,1.581e-05,0.0,0 STARLINK-5012,1 53918U 22119AJ  23221.08299799  .00001581  00000-0  11739-3 0  9993,2 53918  53.2156 230.0391 0001165  87.1278 272.9847 15.08835446 48953,6917.894,95.438,540.565,538.953,0.0
53918.0,STARLINK-5012,PAYLOAD,2023-08-10 09:47:13,15.08846582,0.000116,53.2155,224.0922,85.338,274.7745,8.2169e-05,1.02e-05,0.0,0 STARLINK-5012,1 53918U 22119AJ  23222.40779242  .00001020  00000-0  82169-4 0  9990,2 53918  53.2155 224.0922 0001160  85.3380 274.7745 15.08846582 49157,6917.86,95.437,540.528,538.923,0.0
53918.0,STARLINK-5012,PAYLOAD,2023-08-10 17:44:09,15.08840109,0.0001173,53.2155,222.6053,84.3101,275.8025,3.3528e-05,2.46e-06,0.0,0 STARLINK-5012,1 53918U 22119AJ  23222.73899697  .00000246  00000-0  33528-4 0  9997,2 53918  53.2155 222.6053 0001173  84.3101 275.8025 15.08840109 49208,6917.88,95.438,540.557,538.934,0.0
53918.0,STARLINK-5012,PAYLOAD,2023-08-11 23:56:29,15.08839085,0.0001263,53.2152,216.9553,84.183,275.9306,3.724e-06,-2.29e-06,0.0,0 STARLINK-5012,1 53918U 22119AJ  23223.99755844 -.00000229  00000-0  37240-5 0  9999,2 53918  53.2152 216.9553 0001263  84.1830 275.9306 15.08839085 49397,6917.883,95.438,540.622,538.874,0.0
53918.0,STARLINK-5012,PAYLOAD,2023-08-13 09:19:34,15.08837817,0.0001274,53.2159,210.7097,93.7289,266.3849,2.4614e-05,1.04e-06,0.0,0 STARLINK-5012,1 53918U 22119AJ  23225.38859868  .00000104  00000-0  24614-4 0  9996,2 53918  53.2159 210.7097 0001274  93.7289 266.3849 15.08837817 49606,6917.887,95.438,540.633,538.871,0.0
53918.0,STARLINK-5012,PAYLOAD,2023-08-13 15:41:07,15.08847527,0.0001258,53.216,209.5206,94.9713,265.1423,-3.5085e-05,-8.46e-06,0.0,0 STARLINK-5012,1 53918U 22119AJ  23225.65355368 -.00000846  00000-0 -35085-4 0  9991,2 53918  53.2160 209.5206 0001258  94.9713 265.1423 15.08847527 49641,6917.857,95.437,540.593,538.852,0.0
53918.0,STARLINK-5012,PAYLOAD,2023-08-14 02:48:49,15.08835137,0.0001266,53.2156,207.4395,96.5018,263.6118,1.3222e-05,-7.7e-07,0.0,0 STARLINK-5012,1 53918U 22119AJ  23226.11724218 -.00000077  00000-0  13222-4 0  9991,2 53918  53.2156 207.4395 0001266  96.5018 263.6118 15.08835137 49713,6917.895,95.438,540.636,538.884,0.0
53918.0,STARLINK-5012,PAYLOAD,2023-08-14 15:31:56,15.08817568,0.0001596,53.2166,205.0603,87.4942,272.6233,-0.00014325,-2.566e-05,0.0,0 STARLINK-5012,1 53918U 22119AJ  23226.64718233 -.00002566  00000-0 -14325-3 0  9999,2 53918  53.2166 205.0603 0001596  87.4942 272.6233 15.08817568 49795,6917.949,95.439,540.918,538.71,0.0
53918.0,STARLINK-5012,PAYLOAD,2023-08-15 15:22:43,15.08829399,0.0001363,53.216,200.6009,98.9731,261.1416,2.6854e-06,-2.45e-06,0.0,0 STARLINK-5012,1 53918U 22119AJ  23227.64078307 -.00000245  00000-0  26854-5 0  9994,2 53918  53.2160 200.6009 0001363  98.9731 261.1416 15.08829399 49943,6917.913,95.438,540.721,538.835,0.0
53918.0,STARLINK-5012,PAYLOAD,2023-08-16 02:30:24,15.08840733,0.0001015,53.2154,198.5171,109.1681,250.9421,0.00010137,1.326e-05,0.0,0 STARLINK-5012,1 53918U 22119AJ  23228.10445434  .00001326  00000-0  10137-3 0  9990,2 53918  53.2154 198.5171 0001015 109.1681 250.9421 15.08840733 50011,6917.878,95.438,540.445,539.041,0.0
53918.0,STARLINK-5012,PAYLOAD,2023-08-16 07:16:33,15.08847604,0.0001354,53.2161,197.6267,99.8005,260.314,0.00018599,2.674e-05,0.0,0 STARLINK-5012,1 53918U 22119AJ  23228.30317084  .00002674  00000-0  18599-3 0  9998,2 53918  53.2161 197.6267 0001354  99.8005 260.3140 15.08847604 50046,6917.857,95.437,540.659,538.785,0.0
53918.0,STARLINK-5012,PAYLOAD,2023-08-17 10:18:06,15.08886637,0.0001399,53.2146,192.5702,99.997,260.118,0.00087071,0.00013614,0.0,0 STARLINK-5012,1 53918U 22119AJ  23229.42923877  .00013614  00000-0  87071-3 0  9992,2 53918  53.2146 192.5702 0001399  99.9970 260.1180 15.08886637 50218,6917.738,95.435,540.571,538.635,0.0
53918.0,STARLINK-5012,PAYLOAD,2023-08-18 02:11:57,15.08850081,0.0001436,53.215,189.5967,92.8903,267.2254,3.0701e-05,2.01e-06,0.0,0 STARLINK-5012,1 53918U 22119AJ  23230.09164154  .00000201  00000-0  30701-4 0  9999,2 53918  53.2150 189.5967 0001436  92.8903 267.2254 15.08850081 50317,6917.85,95.437,540.708,538.721,0.0
53918.0,STARLINK-5012,PAYLOAD,2023-08-19 02:02:44,15.08846591,0.000156,53.2161,185.1358,93.4814,266.6357,9.4229e-05,1.212e-05,0.0,0 STARLINK-5012,1 53918U 22119AJ  23231.08524188  .00001212  00000-0  94229-4 0  9994,2 53918  53.2161 185.1358 0001560  93.4814 266.6357 15.08846591 50465,6917.86,95.437,540.804,538.646,0.0
